[{"OBJECT_NAME":"CINEMA","OBJECT_ID":"2012-048G","EPOCH":"2026-03-09T23:21:38.910528","MEAN_MOTION":15.41758997,"ECCENTRICITY":0.00644529,"INCLINATION":64.645,"RA_OF_ASC_NODE":61.8658,"ARG_OF_PERICENTER":204.5071,"MEAN_ANOMALY":155.2999,"EPHEMERIS_TYPE":0,"CLASSIFICATION_TYPE":"U","NORAD_CAT_ID":38764,"ELEMENT_SET_NO":999,"REV_AT_EPOCH":10191,"BSTAR":0.00076174658,"MEAN_MOTION_DOT":0.0003483,"MEAN_MOTION_DDOT":0},{"OBJECT_NAME":"STARLINK-33958","OBJECT_ID":"2025-093Q","EPOCH":"2026-03-09T09:30:19.335168","MEAN_MOTION":15.27582198,"ECCENTRICITY":0.00014715,"INCLINATION":43.0022,"RA_OF_ASC_NODE":79.8737,"ARG_OF_PERICENTER":260.8576,"MEAN_ANOMALY":99.2109,"EPHEMERIS_TYPE":0,"CLASSIFICATION_TYPE":"U","NORAD_CAT_ID":63850,"ELEMENT_SET_NO":999,"REV_AT_EPOCH":4776,"BSTAR":0.0011217485,"MEAN_MOTION_DOT":0.00030737,"MEAN_MOTION_DDOT":0}]
